{
  "type": "FeatureCollection",
  "features": [
    {
      "type": "Feature",
      "properties": {
        "norad_id": 58647,
        "name": "TIANMU-1 13",
        "group": "weather",
        "lat": -47.855758133429184,
        "lon": -172.57856842125935,
        "alt_km": 494.39633325672094,
        "timestamp": "2025-12-22T04:03:38.804364+00:00",
        "meta_object_name": "TIANMU-1 13",
        "meta_object_id": "2023-205C",
        "meta_epoch": "2025-12-21T19:11:10.986144",
        "meta_mean_motion": 15.24628805,
        "meta_eccentricity": 0.000638,
        "meta_inclination": 97.3609,
        "meta_ra_of_asc_node": 15.2708,
        "meta_arg_of_pericenter": 226.9891,
        "meta_mean_anomaly": 133.0813,
        "meta_ephemeris_type": 0,
        "meta_classification_type": "U",
        "meta_norad_cat_id": 58647,
        "meta_element_set_no": 999,
        "meta_rev_at_epoch": 11045,
        "meta_bstar": 0.000217,
        "meta_mean_motion_dot": 5.287e-05,
        "meta_mean_motion_ddot": 0,
        "tle_line1": "1 58647U 23205C   25355.79943271  .00005287  00000+0  21700-3 0  9998",
        "tle_line2": "2 58647  97.3609  15.2708 0006380 226.9891 133.0813 15.24628805110454"
      },
      "geometry": {
        "type": "Point",
        "coordinates": [
          -172.57856842125935,
          -47.855758133429184
        ]
      }
    },
    {
      "type": "Feature",
      "properties": {
        "norad_id": 58648,
        "name": "TIANMU-1 14",
        "group": "weather",
        "lat": -40.8359171992512,
        "lon": 21.382966614870565,
        "alt_km": 498.29315583267817,
        "timestamp": "2025-12-22T04:03:38.804380+00:00",
        "meta_object_name": "TIANMU-1 14",
        "meta_object_id": "2023-205D",
        "meta_epoch": "2025-12-21T20:21:55.928736",
        "meta_mean_motion": 15.24612471,
        "meta_eccentricity": 0.0007114,
        "meta_inclination": 97.3541,
        "meta_ra_of_asc_node": 14.6593,
        "meta_arg_of_pericenter": 233.1003,
        "meta_mean_anomaly": 126.9583,
        "meta_ephemeris_type": 0,
        "meta_classification_type": "U",
        "meta_norad_cat_id": 58648,
        "meta_element_set_no": 999,
        "meta_rev_at_epoch": 11046,
        "meta_bstar": 0.00020896,
        "meta_mean_motion_dot": 5.086e-05,
        "meta_mean_motion_ddot": 0,
        "tle_line1": "1 58648U 23205D   25355.84856399  .00005086  00000+0  20896-3 0  9991",
        "tle_line2": "2 58648  97.3541  14.6593 0007114 233.1003 126.9583 15.24612471110464"
      },
      "geometry": {
        "type": "Point",
        "coordinates": [
          21.382966614870565,
          -40.8359171992512
        ]
      }
    },
    {
      "type": "Feature",
      "properties": {
        "norad_id": 58660,
        "name": "TIANMU-1 19",
        "group": "weather",
        "lat": -31.85777449453972,
        "lon": 111.84641949811005,
        "alt_km": 489.3009904354858,
        "timestamp": "2025-12-22T04:03:38.804400+00:00",
        "meta_object_name": "TIANMU-1 19",
        "meta_object_id": "2023-208A",
        "meta_epoch": "2025-12-21T20:20:34.436256",
        "meta_mean_motion": 15.28002982,
        "meta_eccentricity": 0.0004582,
        "meta_inclination": 97.4395,
        "meta_ra_of_asc_node": 106.8678,
        "meta_arg_of_pericenter": 213.0854,
        "meta_mean_anomaly": 147.0099,
        "meta_ephemeris_type": 0,
        "meta_classification_type": "U",
        "meta_norad_cat_id": 58660,
        "meta_element_set_no": 999,
        "meta_rev_at_epoch": 11021,
        "meta_bstar": 0.00030219,
        "meta_mean_motion_dot": 8.184e-05,
        "meta_mean_motion_ddot": 0,
        "tle_line1": "1 58660U 23208A   25355.84762079  .00008184  00000+0  30219-3 0  9991",
        "tle_line2": "2 58660  97.4395 106.8678 0004582 213.0854 147.0099 15.28002982110214"
      },
      "geometry": {
        "type": "Point",
        "coordinates": [
          111.84641949811005,
          -31.85777449453972
        ]
      }
    },
    {
      "type": "Feature",
      "properties": {
        "norad_id": 58661,
        "name": "TIANMU-1 20",
        "group": "weather",
        "lat": 79.39745415335332,
        "lon": 63.421164470538166,
        "alt_km": 474.5484317009232,
        "timestamp": "2025-12-22T04:03:38.804416+00:00",
        "meta_object_name": "TIANMU-1 20",
        "meta_object_id": "2023-208B",
        "meta_epoch": "2025-12-21T19:50:56.160096",
        "meta_mean_motion": 15.29192286,
        "meta_eccentricity": 0.0006624,
        "meta_inclination": 97.4333,
        "meta_ra_of_asc_node": 107.3037,
        "meta_arg_of_pericenter": 227.9478,
        "meta_mean_anomaly": 132.1199,
        "meta_ephemeris_type": 0,
        "meta_classification_type": "U",
        "meta_norad_cat_id": 58661,
        "meta_element_set_no": 999,
        "meta_rev_at_epoch": 11028,
        "meta_bstar": 0.00027111,
        "meta_mean_motion_dot": 7.609e-05,
        "meta_mean_motion_ddot": 0,
        "tle_line1": "1 58661U 23208B   25355.82703889  .00007609  00000+0  27111-3 0  9992",
        "tle_line2": "2 58661  97.4333 107.3037 0006624 227.9478 132.1199 15.29192286110288"
      },
      "geometry": {
        "type": "Point",
        "coordinates": [
          63.421164470538166,
          79.39745415335332
        ]
      }
    },
    {
      "type": "Feature",
      "properties": {
        "norad_id": 58662,
        "name": "TIANMU-1 21",
        "group": "weather",
        "lat": 7.076380571078115,
        "lon": -69.47428700690499,
        "alt_km": 469.8965298508947,
        "timestamp": "2025-12-22T04:03:38.804435+00:00",
        "meta_object_name": "TIANMU-1 21",
        "meta_object_id": "2023-208C",
        "meta_epoch": "2025-12-21T21:02:13.596864",
        "meta_mean_motion": 15.31731934,
        "meta_eccentricity": 0.0006265,
        "meta_inclination": 97.4382,
        "meta_ra_of_asc_node": 109.3027,
        "meta_arg_of_pericenter": 221.913,
        "meta_mean_anomaly": 138.1632,
        "meta_ephemeris_type": 0,
        "meta_classification_type": "U",
        "meta_norad_cat_id": 58662,
        "meta_element_set_no": 999,
        "meta_rev_at_epoch": 11039,
        "meta_bstar": 0.00032555,
        "meta_mean_motion_dot": 9.904e-05,
        "meta_mean_motion_ddot": 0,
        "tle_line1": "1 58662U 23208C   25355.87654626  .00009904  00000+0  32555-3 0  9990",
        "tle_line2": "2 58662  97.4382 109.3027 0006265 221.9130 138.1632 15.31731934110396"
      },
      "geometry": {
        "type": "Point",
        "coordinates": [
          -69.47428700690499,
          7.076380571078115
        ]
      }
    },
    {
      "type": "Feature",
      "properties": {
        "norad_id": 58663,
        "name": "TIANMU-1 22",
        "group": "weather",
        "lat": -39.093773625669456,
        "lon": 113.33749550085618,
        "alt_km": 488.8431200543282,
        "timestamp": "2025-12-22T04:03:38.804451+00:00",
        "meta_object_name": "TIANMU-1 22",
        "meta_object_id": "2023-208D",
        "meta_epoch": "2025-12-21T20:22:24.902976",
        "meta_mean_motion": 15.27746413,
        "meta_eccentricity": 0.0002816,
        "meta_inclination": 97.4389,
        "meta_ra_of_asc_node": 106.9239,
        "meta_arg_of_pericenter": 238.7837,
        "meta_mean_anomaly": 121.3126,
        "meta_ephemeris_type": 0,
        "meta_classification_type": "U",
        "meta_norad_cat_id": 58663,
        "meta_element_set_no": 999,
        "meta_rev_at_epoch": 11022,
        "meta_bstar": 0.00028427,
        "meta_mean_motion_dot": 7.632e-05,
        "meta_mean_motion_ddot": 0,
        "tle_line1": "1 58663U 23208D   25355.84889934  .00007632  00000+0  28427-3 0  9999",
        "tle_line2": "2 58663  97.4389 106.9239 0002816 238.7837 121.3126 15.27746413110227"
      },
      "geometry": {
        "type": "Point",
        "coordinates": [
          113.33749550085618,
          -39.093773625669456
        ]
      }
    },
    {
      "type": "Feature",
      "properties": {
        "norad_id": 58700,
        "name": "TIANMU-1 15",
        "group": "weather",
        "lat": -18.54033898284327,
        "lon": -179.87738305197698,
        "alt_km": 497.4561212312392,
        "timestamp": "2025-12-22T04:03:38.804467+00:00",
        "meta_object_name": "TIANMU-1 15",
        "meta_object_id": "2024-004A",
        "meta_epoch": "2025-12-21T20:15:58.581792",
        "meta_mean_motion": 15.24517079,
        "meta_eccentricity": 0.0005987,
        "meta_inclination": 97.4622,
        "meta_ra_of_asc_node": 177.2797,
        "meta_arg_of_pericenter": 251.3944,
        "meta_mean_anomaly": 108.6643,
        "meta_ephemeris_type": 0,
        "meta_classification_type": "U",
        "meta_norad_cat_id": 58700,
        "meta_element_set_no": 999,
        "meta_rev_at_epoch": 10873,
        "meta_bstar": 0.00023615,
        "meta_mean_motion_dot": 5.738e-05,
        "meta_mean_motion_ddot": 0,
        "tle_line1": "1 58700U 24004A   25355.84442803  .00005738  00000+0  23615-3 0  9995",
        "tle_line2": "2 58700  97.4622 177.2797 0005987 251.3944 108.6643 15.24517079108737"
      },
      "geometry": {
        "type": "Point",
        "coordinates": [
          -179.87738305197698,
          -18.54033898284327
        ]
      }
    }
  ]
}